STARLINK-4021           
1 53149U 22083T   24307.89188041  .00010413  00000+0  67104-3 0  9991
2 53149  53.2171 212.0860 0001698 108.9540 251.1637 15.08858943127740
STARLINK-4038           
1 53150U 22083U   24308.11170932  .00002092  00000+0  14953-3 0  9997
2 53150  53.2160 210.8964 0001352 100.7572 259.3573 15.08834374127777
STARLINK-4040           
1 53151U 22083V   24307.90194956  .00003252  00000+0  22234-3 0  9996
2 53151  53.2167 211.8384 0001483  90.1713 269.9449 15.08834811127119
STARLINK-4045           
1 53152U 22083W   24307.90929885 -.00001343  00000+0 -66328-4 0  9998
2 53152  53.2173 211.8136 0001485 127.2658 232.8470 15.08837315127119
STARLINK-4098           
1 53153U 22083X   24308.03073691  .00006397  00000+0  41954-3 0  9998
2 53153  53.2152 211.2574 0001272 106.5477 253.5655 15.08851124127760
STARLINK-4077           
1 53154U 22083Y   24308.03809639  .00003444  00000+0  23439-3 0  9996
2 53154  53.2174 211.2344 0001454 120.6738 239.4397 15.08839686127764
STARLINK-4088           
1 53155U 22083Z   24307.89089048 -.00001784  00000+0 -94040-4 0  9998
2 53155  53.2161 211.8806 0001722 130.6517 229.4625 15.08839122127740
STARLINK-4087           
1 53156U 22083AA  24307.87984365  .00000650  00000+0  58956-4 0  9998
2 53156  53.2168 211.8131 0001614  99.2732 260.8443 15.08827187127743
STARLINK-4093           
1 53157U 22083AB  24308.01602100 -.00003113  00000+0 -17763-3 0  9999
2 53157  53.2165 211.3283 0001631  89.8988 270.2191 15.08830291127768
STARLINK-4054           
1 53158U 22083AC  24307.89457488  .00000748  00000+0  65085-4 0  9992
2 53158  53.2144 211.8608 0002396 138.1364 221.9812 15.08841199127747
STARLINK-4111           
1 53159U 22083AD  24308.00866652 -.00000122  00000+0  10406-4 0  9998
2 53159  53.2170 211.3640 0000994  70.6429 289.4670 15.08824069127762
STARLINK-4096           
1 53160U 22083AE  24308.01969532  .00021146  00000+0  13426-2 0  9993
2 53160  53.2170 211.3112 0001190  90.1462 269.9667 15.08843292127769
STARLINK-4055           
1 53161U 22083AF  24307.99761390 -.00008701  00000+0 -52935-3 0  9995
2 53161  53.2158 211.4125 0000978 102.2276 257.8826 15.08835967127765
STARLINK-4114           
1 53162U 22083AG  24307.88081669  .00002452  00000+0  17211-3 0  9991
2 53162  53.2179 211.9467 0001689 101.7147 258.4035 15.08844543127741
STARLINK-4104           
1 53163U 22083AH  24308.00500141  .00001011  00000+0  81599-4 0  9999
2 53163  53.2169 211.5227 0000515  93.4390 266.6661 15.08835078127766
STARLINK-4116           
1 53164U 22083AJ  24307.93506704 -.00001283  00000+0 -62543-4 0  9993
2 53164  53.2159 211.6958 0000994  68.8488 291.2610 15.08826456127121
STARLINK-4090           
1 53165U 22083AK  24308.11905463  .00040163  00000+0  25261-2 0  9992
2 53165  53.2158 210.8656 0001246  69.9949 290.1177 15.08857361127789
STARLINK-4110           
1 53166U 22083AL  24308.12641141  .00002035  00000+0  14589-3 0  9992
2 53166  53.2171 210.8312 0001441  86.2744 273.8412 15.08852293127785
STARLINK-3683           
1 53167U 22083AM  24308.07075553  .00008290  00000+0  53826-3 0  9991
2 53167  53.2154 196.0699 0001358  81.7905 278.3241 15.08846107127985
STARLINK-4105           
1 53168U 22083AN  24308.12271740  .00016348  00000+0  10415-2 0  9993
2 53168  53.2160 210.8479 0001305 109.1792 250.9342 15.08887174127780
STARLINK-4117           
1 53169U 22083AP  24308.11495261  .00007234  00000+0  47201-3 0  9997
2 53169  53.2158 196.1418 0001287 101.2281 258.8855 15.08851166127982
STARLINK-4095           
1 53170U 22083AQ  24308.01831404  .00001862  00000+0  13503-3 0  9990
2 53170  53.2168 206.2720 0001258  89.4350 270.6786 15.08839530127836
STARLINK-4052           
1 53171U 22083AR  24307.92675268  .00002661  00000+0  18520-3 0  9996
2 53171  53.2161 181.4888 0001700  98.3658 261.7526 15.08840590127539
STARLINK-4299           
1 53172U 22083AS  24307.87847600  .00004823  00000+0  32084-3 0  9995
2 53172  53.2171 206.8610 0001714  91.9947 268.1242 15.08847144127179
STARLINK-4300           
1 53173U 22083AT  24307.96495716 -.00001239  00000+0 -59748-4 0  9990
2 53173  53.2154 186.5480 0001299  89.0989 271.0152 15.08838009128109
STARLINK-4205           
1 53174U 22083AU  24308.18531843  .00001222  00000+0  94851-4 0  9992
2 53174  53.2169 220.4980 0001184 104.4571 255.6552 15.08841597127658
STARLINK-4292           
1 53175U 22083AV  24308.18805507  .00014972  00000+0  95628-3 0  9992
2 53175  53.2169 220.5514 0001468  89.2622 270.8539 15.08858506127657
STARLINK-4294           
1 53176U 22083AW  24307.99346621  .00009283  00000+0  60035-3 0  9991
2 53176  53.2152 196.3426 0001375  77.9913 282.1233 15.08854220127977
STARLINK-4298           
1 53177U 22083AX  24307.95759345  .00001034  00000+0  83066-4 0  9995
2 53177  53.2154 186.5818 0001388  92.4167 267.6984 15.08844856127462
STARLINK-4280           
1 53178U 22083AY  24307.91666810  .00001450  00000+0  10922-3 0  9998
2 53178  53.2153 211.7741 0001256  79.2881 280.8253 15.08831157127105
STARLINK-4276           
1 53179U 22083AZ  24307.90925238  .00005560  00000+0  36713-3 0  9992
2 53179  53.2149 171.4040 0001408  94.4321 265.6832 15.08843760128313
STARLINK-4258           
1 53180U 22083BA  24307.93504711  .00000604  00000+0  56017-4 0  9990
2 53180  53.2164 171.5648 0001503  79.5597 280.5564 15.08833985127676
STARLINK-4273           
1 53181U 22083BB  24307.89349598  .00090929  00000+0  33207-2 0  9999
2 53181  53.1942 164.9871 0008748 150.1534 209.9967 15.27337308128390
STARLINK-4278           
1 53182U 22083BC  24307.95392514  .00024147  00000+0  15295-2 0  9999
2 53182  53.2163 186.5993 0001461  79.2727 280.8429 15.08853682127467
STARLINK-4268           
1 53183U 22083BD  24307.89594564 -.00000949  00000+0 -41492-4 0  9998
2 53183  53.2150 176.7810 0002034 145.9099 214.2025 15.08841265128236
STARLINK-4257           
1 53184U 22083BE  24307.90557217  .00002052  00000+0  14699-3 0  9998
2 53184  53.2157 171.4068 0001334  85.5526 274.5618 15.08836842128318
STARLINK-4391           
1 53189U 22084A   24307.89235971 -.00001926  00000+0 -14540-3 0  9998
2 53189  97.6534   6.7174 0002265  79.2544 280.8935 15.01257275125911
STARLINK-4332           
1 53190U 22084B   24307.91988536  .00001612  00000+0  13005-3 0  9990
2 53190  97.6562   6.7609 0001186 114.7538 245.3810 15.01258894126205
STARLINK-4369           
1 53191U 22084C   24307.88099732  .00001159  00000+0  94787-4 0  9991
2 53191  97.6554   6.7174 0001460 254.8745 105.2318 15.01261470125902
STARLINK-4375           
1 53192U 22084D   24307.87914262  .00002793  00000+0  22193-3 0  9991
2 53192  97.6544   6.7157 0002041 257.7937 102.3059 15.01269521125909
STARLINK-4351           
1 53193U 22084E   24307.88470084  .00002142  00000+0  17127-3 0  9991
2 53193  97.6548   6.7217 0000184 165.2359 194.8870 15.01267228125918
STARLINK-4382           
1 53194U 22084F   24307.88285531  .00008487  00000+0  66440-3 0  9993
2 53194  97.6550   6.7202 0001100  86.0139 274.1211 15.01270420125909
STARLINK-4404           
1 53195U 22084G   24307.73658142  .00001076  00000+0  88305-4 0  9992
2 53195  97.6557   6.5912 0001082 191.9828 168.1370 15.01265805126172
STARLINK-4407           
1 53196U 22084H   24308.13834549  .00000040  00000+0  77142-5 0  9993
2 53196  97.6553   6.9883 0002577 209.5583 150.5496 15.01273250125945
STARLINK-4403           
1 53197U 22084J   24307.74028049  .00002548  00000+0  20282-3 0  9996
2 53197  97.6549   6.5765 0003218 216.1183 143.9824 15.01269320125505
STARLINK-4385           
1 53198U 22084K   24307.74398624  .00003639  00000+0  28770-3 0  9998
2 53198  97.6551   6.5811 0001860 252.9951 107.1070 15.01267998126160
STARLINK-4395           
1 53199U 22084L   24307.74213552  .00002771  00000+0  22021-3 0  9994
2 53199  97.6550   6.5711 0002677 230.5002 129.5985 15.01264817125502
STARLINK-4417           
1 53200U 22084M   24307.73868666  .00003837  00000+0  30301-3 0  9992
2 53200  97.6552   6.5841 0001797 201.9833 158.1315 15.01281726126163
STARLINK-4405           
1 53201U 22084N   24307.92938530  .00001322  00000+0  10753-3 0  9998
2 53201  97.6578   6.7786 0000317  97.4137 262.7124 15.01258455125537
STARLINK-4411           
1 53202U 22084P   24307.73473310 -.00003583  00000+0 -27459-3 0  9992
2 53202  97.6557   6.5833 0000868 192.9862 167.1340 15.01246812125502
STARLINK-4409           
1 53203U 22084Q   24307.93099019  .00000382  00000+0  34346-4 0  9991
2 53203  97.6568   6.7667 0001023 279.0443  81.0665 15.01257953125533
STARLINK-4410           
1 53204U 22084R   24307.73498585  .00003467  00000+0  27438-3 0  9991
2 53204  97.6574   6.5780 0000536 189.5762 170.5452 15.01259241126162
STARLINK-4397           
1 53205U 22084S   24307.92728622  .00004410  00000+0  34758-3 0  9993
2 53205  97.6595   6.7686 0000267 223.0436 137.0767 15.01275527125538
STARLINK-4408           
1 53206U 22084T   24307.91617114 -.00000091  00000+0 -25007-5 0  9998
2 53206  97.6565   6.8017 0001755 102.7754 257.3666 15.01261299125539
STARLINK-4413           
1 53207U 22084U   24307.92543965  .00000931  00000+0  77086-4 0  9996
2 53207  97.6594   6.7654 0000788 105.2399 254.8912 15.01261430125539
STARLINK-4425           
1 53208U 22084V   24308.13279705  .00002651  00000+0  21085-3 0  9997
2 53208  97.6556   6.9659 0000239 248.1527 111.9672 15.01267791125943
STARLINK-4423           
1 53209U 22084W   24307.92382791  .00001222  00000+0  99678-4 0  9991
2 53209  97.6618   6.7669 0000147 164.7589 195.3640 15.01265542125539
STARLINK-4427           
1 53210U 22084X   24307.92913590  .00000152  00000+0  16390-4 0  9991
2 53210  97.6586   6.7659 0000018 260.2435  99.8787 15.01267156126076
STARLINK-4419           
1 53211U 22084Y   24307.91827668  .00003738  00000+0  29544-3 0  9998
2 53211  97.6573   6.7703 0000955  85.0980 275.0353 15.01264990125913
